{"type": "FeatureCollection", "features": [ {"type": "Feature", "properties": {"norad_id": 41003, "name": "FENGYUN 1C DEB", "group": "fengyun-1c-debris", "lat": 7.123290952147498, "lon": 88.13201313999876, "alt_km": 675.4716071982384, "timestamp": "2025-12-13T18:50:04.721614+00:00", "meta": {"OBJECT_NAME": "FENGYUN 1C DEB", "OBJECT_ID": "1999-025EXH", "EPOCH": "2025-12-11T12:14:27.482784", "MEAN_MOTION": 14.72686448, "ECCENTRICITY": 0.0070582, "INCLINATION": 98.9647, "RA_OF_ASC_NODE": 264.4932, "ARG_OF_PERICENTER": 296.3478, "MEAN_ANOMALY": 63.049, "EPHEMERIS_TYPE": 0, "CLASSIFICATION_TYPE": "U", "NORAD_CAT_ID": 41003, "ELEMENT_SET_NO": 999, "REV_AT_EPOCH": 52402, "BSTAR": 0.0094626523, "MEAN_MOTION_DOT": 0.00063247, "MEAN_MOTION_DDOT": 0}, "tle": {"line1": "1 41003U 99025EXH 25345.51004031  .00063247  00000+0  94627-2 0  9997", "line2": "2 41003  98.9647 264.4932 0070582 296.3478  63.0490 14.72686448524029"}}, "geometry": {"type": "Point", "coordinates": [88.13201313999876, 7.123290952147498]}}, {"type": "Feature", "properties": {"norad_id": 41006, "name": "FENGYUN 1C DEB", "group": "fengyun-1c-debris", "lat": 76.0544144662167, "lon": 156.84053404302722, "alt_km": 904.5248773222793, "timestamp": "2025-12-13T18:50:04.721625+00:00", "meta": {"OBJECT_NAME": "FENGYUN 1C DEB", "OBJECT_ID": "1999-025EXL", "EPOCH": "2025-12-12T21:38:45.983904", "MEAN_MOTION": 13.8536183, "ECCENTRICITY": 0.01900708, "INCLINATION": 102.3668, "RA_OF_ASC_NODE": 217.748, "ARG_OF_PERICENTER": 8.2798, "MEAN_ANOMALY": 352.1409, "EPHEMERIS_TYPE": 0, "CLASSIFICATION_TYPE": "U", "NORAD_CAT_ID": 41006, "ELEMENT_SET_NO": 999, "REV_AT_EPOCH": 57491, "BSTAR": 0.0039238836, "MEAN_MOTION_DOT": 5.076e-05, "MEAN_MOTION_DDOT": 0}, "tle": {"line1": "1 41006U 99025EXL 25346.90192111  .00005076  00000+0  39239-2 0  9995", "line2": "2 41006 102.3668 217.7480 0190070   8.2798 352.1409 13.85361830574917"}}, "geometry": {"type": "Point", "coordinates": [156.84053404302722, 76.0544144662167]}}, {"type": "Feature", "properties": {"norad_id": 41007, "name": "FENGYUN 1C DEB", "group": "fengyun-1c-debris", "lat": -77.11939312594428, "lon": 64.92911847459514, "alt_km": 1018.43317023071, "timestamp": "2025-12-13T18:50:04.721636+00:00", "meta": {"OBJECT_NAME": "FENGYUN 1C DEB", "OBJECT_ID": "1999-025EXM", "EPOCH": "2025-11-29T06:55:22.773792", "MEAN_MOTION": 13.85678237, "ECCENTRICITY": 0.01723955, "INCLINATION": 99.9731, "RA_OF_ASC_NODE": 359.205, "ARG_OF_PERICENTER": 79.2855, "MEAN_ANOMALY": 282.7657, "EPHEMERIS_TYPE": 0, "CLASSIFICATION_TYPE": "U", "NORAD_CAT_ID": 41007, "ELEMENT_SET_NO": 999, "REV_AT_EPOCH": 57212, "BSTAR": 0.0017167305, "MEAN_MOTION_DOT": 2.158e-05, "MEAN_MOTION_DDOT": 0}, "tle": {"line1": "1 41007U 99025EXM 25333.28845803  .00002158  00000+0  17167-2 0  9990", "line2": "2 41007  99.9731 359.2050 0172395  79.2855 282.7657 13.85678237572123"}}, "geometry": {"type": "Point", "coordinates": [64.92911847459514, -77.11939312594428]}}, {"type": "Feature", "properties": {"norad_id": 41011, "name": "FENGYUN 1C DEB", "group": "fengyun-1c-debris", "lat": -79.4403329894154, "lon": 92.92009027810516, "alt_km": 710.5324792571046, "timestamp": "2025-12-13T18:50:04.721646+00:00", "meta": {"OBJECT_NAME": "FENGYUN 1C DEB", "OBJECT_ID": "1999-025EXR", "EPOCH": "2025-12-10T21:18:45.300384", "MEAN_MOTION": 14.42881738, "ECCENTRICITY": 0.0310259, "INCLINATION": 99.169, "RA_OF_ASC_NODE": 29.7554, "ARG_OF_PERICENTER": 3.6391, "MEAN_ANOMALY": 356.6951, "EPHEMERIS_TYPE": 0, "CLASSIFICATION_TYPE": "U", "NORAD_CAT_ID": 41011, "ELEMENT_SET_NO": 999, "REV_AT_EPOCH": 57130, "BSTAR": 0.00084069, "MEAN_MOTION_DOT": 4.979e-05, "MEAN_MOTION_DDOT": 0}, "tle": {"line1": "1 41011U 99025EXR 25344.88802431  .00004979  00000+0  84069-3 0  9992", "line2": "2 41011  99.1690  29.7554 0310259   3.6391 356.6951 14.42881738571304"}}, "geometry": {"type": "Point", "coordinates": [92.92009027810516, -79.4403329894154]}}, {"type": "Feature", "properties": {"norad_id": 41018, "name": "FENGYUN 1C DEB", "group": "fengyun-1c-debris", "lat": -79.17480837697043, "lon": 45.72553314431471, "alt_km": 1264.2597180036855, "timestamp": "2025-12-13T18:50:04.721657+00:00", "meta": {"OBJECT_NAME": "FENGYUN 1C DEB", "OBJECT_ID": "1999-025EXY", "EPOCH": "2025-12-11T01:37:38.775360", "MEAN_MOTION": 13.52353334, "ECCENTRICITY": 0.03042761, "INCLINATION": 99.9366, "RA_OF_ASC_NODE": 289.4523, "ARG_OF_PERICENTER": 122.8636, "MEAN_ANOMALY": 240.2177, "EPHEMERIS_TYPE": 0, "CLASSIFICATION_TYPE": "U", "NORAD_CAT_ID": 41018, "ELEMENT_SET_NO": 999, "REV_AT_EPOCH": 88152, "BSTAR": 0.0022479257, "MEAN_MOTION_DOT": 1.943e-05, "MEAN_MOTION_DDOT": 0}, "tle": {"line1": "1 41018U 99025EXY 25345.06780990  .00001943  00000+0  22479-2 0  9999", "line2": "2 41018  99.9366 289.4523 0304276 122.8636 240.2177 13.52353334881520"}}, "geometry": {"type": "Point", "coordinates": [45.72553314431471, -79.17480837697043]}}, {"type": "Feature", "properties": {"norad_id": 41822, "name": "FENGYUN 1C DEB", "group": "fengyun-1c-debris", "lat": -36.18898356912528, "lon": -132.46769543086387, "alt_km": 775.5570182427555, "timestamp": "2025-12-13T18:50:04.721667+00:00", "meta": {"OBJECT_NAME": "FENGYUN 1C DEB", "OBJECT_ID": "1999-025EXZ", "EPOCH": "2025-12-13T02:39:02.754720", "MEAN_MOTION": 14.24802982, "ECCENTRICITY": 0.00554372, "INCLINATION": 98.7324, "RA_OF_ASC_NODE": 53.318, "ARG_OF_PERICENTER": 219.4647, "MEAN_ANOMALY": 140.2488, "EPHEMERIS_TYPE": 0, "CLASSIFICATION_TYPE": "U", "NORAD_CAT_ID": 41822, "ELEMENT_SET_NO": 999, "REV_AT_EPOCH": 47378, "BSTAR": 0.0024287115, "MEAN_MOTION_DOT": 5.714e-05, "MEAN_MOTION_DDOT": 0}, "tle": {"line1": "1 41822U 99025EXZ 25347.11044855  .00005714  00000+0  24287-2 0  9992", "line2": "2 41822  98.7324  53.3180 0055437 219.4647 140.2488 14.24802982473785"}}, "geometry": {"type": "Point", "coordinates": [-132.46769543086387, -36.18898356912528]}}, {"type": "Feature", "properties": {"norad_id": 41823, "name": "FENGYUN 1C DEB", "group": "fengyun-1c-debris", "lat": -74.0852345676356, "lon": 83.66917704857565, "alt_km": 799.8245306118024, "timestamp": "2025-12-13T18:50:04.721678+00:00", "meta": {"OBJECT_NAME": "FENGYUN 1C DEB", "OBJECT_ID": "1999-025EYA", "EPOCH": "2025-12-13T04:00:44.491968", "MEAN_MOTION": 14.23524334, "ECCENTRICITY": 0.00546863, "INCLINATION": 98.7207, "RA_OF_ASC_NODE": 50.489, "ARG_OF_PERICENTER": 227.0118, "MEAN_ANOMALY": 132.647, "EPHEMERIS_TYPE": 0, "CLASSIFICATION_TYPE": "U", "NORAD_CAT_ID": 41823, "ELEMENT_SET_NO": 999, "REV_AT_EPOCH": 47364, "BSTAR": 0.0022578977, "MEAN_MOTION_DOT": 5.175e-05, "MEAN_MOTION_DDOT": 0}, "tle": {"line1": "1 41823U 99025EYA 25347.16718162  .00005175  00000+0  22579-2 0  9990", "line2": "2 41823  98.7207  50.4890 0054686 227.0118 132.6470 14.23524334473647"}}, "geometry": {"type": "Point", "coordinates": [83.66917704857565, -74.0852345676356]}}, {"type": "Feature", "properties": {"norad_id": 41824, "name": "FENGYUN 1C DEB", "group": "fengyun-1c-debris", "lat": 29.792641468393033, "lon": -123.14804420008235, "alt_km": 798.5265418262279, "timestamp": "2025-12-13T18:50:04.721688+00:00", "meta": {"OBJECT_NAME": "FENGYUN 1C DEB", "OBJECT_ID": "1999-025EYB", "EPOCH": "2025-12-12T21:53:41.923392", "MEAN_MOTION": 14.24166073, "ECCENTRICITY": 0.00574087, "INCLINATION": 98.7318, "RA_OF_ASC_NODE": 50.9372, "ARG_OF_PERICENTER": 226.8452, "MEAN_ANOMALY": 132.792, "EPHEMERIS_TYPE": 0, "CLASSIFICATION_TYPE": "U", "NORAD_CAT_ID": 41824, "ELEMENT_SET_NO": 999, "REV_AT_EPOCH": 47362, "BSTAR": 0.0024130782, "MEAN_MOTION_DOT": 5.613e-05, "MEAN_MOTION_DDOT": 0}, "tle": {"line1": "1 41824U 99025EYB 25346.91229078  .00005613  00000+0  24131-2 0  9999", "line2": "2 41824  98.7318  50.9372 0057408 226.8452 132.7920 14.24166073473626"}}, "geometry": {"type": "Point", "coordinates": [-123.14804420008235, 29.792641468393033]}}, {"type": "Feature", "properties": {"norad_id": 41825, "name": "FENGYUN 1C DEB", "group": "fengyun-1c-debris", "lat": 16.959973889147577, "lon": 54.12136113606214, "alt_km": 846.2284058218384, "timestamp": "2025-12-13T18:50:04.721699+00:00", "meta": {"OBJECT_NAME": "FENGYUN 1C DEB", "OBJECT_ID": "1999-025EYC", "EPOCH": "2025-12-13T03:35:17.050560", "MEAN_MOTION": 14.25096254, "ECCENTRICITY": 0.0055989, "INCLINATION": 98.7431, "RA_OF_ASC_NODE": 56.1785, "ARG_OF_PERICENTER": 219.8519, "MEAN_ANOMALY": 139.8543, "EPHEMERIS_TYPE": 0, "CLASSIFICATION_TYPE": "U", "NORAD_CAT_ID": 41825, "ELEMENT_SET_NO": 999, "REV_AT_EPOCH": 47354, "BSTAR": 0.0024270125, "MEAN_MOTION_DOT": 5.744e-05, "MEAN_MOTION_DDOT": 0}, "tle": {"line1": "1 41825U 99025EYC 25347.14950290  .00005744  00000+0  24270-2 0  9992", "line2": "2 41825  98.7431  56.1785 0055989 219.8519 139.8543 14.25096254473541"}}, "geometry": {"type": "Point", "coordinates": [54.12136113606214, 16.959973889147577]}}, {"type": "Feature", "properties": {"norad_id": 41826, "name": "FENGYUN 1C DEB", "group": "fengyun-1c-debris", "lat": -15.569895746237782, "lon": 56.026795304258144, "alt_km": 839.5975655120501, "timestamp": "2025-12-13T18:50:04.721710+00:00", "meta": {"OBJECT_NAME": "FENGYUN 1C DEB", "OBJECT_ID": "1999-025EYD", "EPOCH": "2025-12-13T03:43:45.254496", "MEAN_MOTION": 14.23753045, "ECCENTRICITY": 0.00558442, "INCLINATION": 98.7334, "RA_OF_ASC_NODE": 52.9471, "ARG_OF_PERICENTER": 222.3164, "MEAN_ANOMALY": 137.37, "EPHEMERIS_TYPE": 0, "CLASSIFICATION_TYPE": "U", "NORAD_CAT_ID": 41826, "ELEMENT_SET_NO": 999, "REV_AT_EPOCH": 47366, "BSTAR": 0.002214205, "MEAN_MOTION_DOT": 5.1e-05, "MEAN_MOTION_DDOT": 0}, "tle": {"line1": "1 41826U 99025EYD 25347.15538489  .00005100  00000+0  22142-2 0  9998", "line2": "2 41826  98.7334  52.9471 0055844 222.3164 137.3700 14.23753045473662"}}, "geometry": {"type": "Point", "coordinates": [56.026795304258144, -15.569895746237782]}}]}